[{"OBJECT_NAME":"SKYSAT-C6","OBJECT_ID":"2017-068F","EPOCH":"2026-03-09T21:33:49.392576","MEAN_MOTION":15.32504544,"ECCENTRICITY":0.00036369,"INCLINATION":97.44,"RA_OF_ASC_NODE":205.7173,"ARG_OF_PERICENTER":127.5085,"MEAN_ANOMALY":232.6488,"EPHEMERIS_TYPE":0,"CLASSIFICATION_TYPE":"U","NORAD_CAT_ID":42992,"ELEMENT_SET_NO":999,"REV_AT_EPOCH":46710,"BSTAR":0.00039699196,"MEAN_MOTION_DOT":0.0001239,"MEAN_MOTION_DDOT":0},{"OBJECT_NAME":"STARLINK-33773","OBJECT_ID":"2025-087S","EPOCH":"2026-03-09T16:47:25.587744","MEAN_MOTION":15.30225288,"ECCENTRICITY":7.371e-5,"INCLINATION":53.158,"RA_OF_ASC_NODE":219.3267,"ARG_OF_PERICENTER":103.6981,"MEAN_ANOMALY":256.4102,"EPHEMERIS_TYPE":0,"CLASSIFICATION_TYPE":"U","NORAD_CAT_ID":63713,"ELEMENT_SET_NO":999,"REV_AT_EPOCH":4920,"BSTAR":0.00087029488,"MEAN_MOTION_DOT":0.00025525,"MEAN_MOTION_DDOT":0}]
